HORYU-4                 
1 41340U 16012D   20028.69453079  .00000403  00000-0  23793-4 0  9992
2 41340  31.0044 148.1250 0013831 192.4386 167.5909 15.01403676216702
E-ST@R-II               
1 41459U 16025D   20028.82483409  .00000998  00000-0  54951-4 0  9991
2 41459  98.0971 131.6259 0165012 325.1845  33.8679 15.05999128206271
AAUSAT 4                
1 41460U 16025E   20028.83706269  .00000470  00000-0  27653-4 0  9990
2 41460  98.0913 133.4990 0154970 315.6191  43.2721 15.08109625206440
DIWATA-1                
1 41463U 98067HT  20028.93784987  .00064362  13013-4  14502-3 0  9993
2 41463  51.6248 151.4307 0001799 325.4521 139.4670 15.97896092215403
BEESAT-4                
1 41619U 16040W   20028.70257892  .00000971  00000-0  43421-4 0  9999
2 41619  97.3399  91.4486 0010016 322.2181  37.8352 15.23638866187969
CANX-7                  
1 41788U 16059F   20028.83922140  .00006328  00000-0  91223-3 0  9999
2 41788  98.2526 113.3746 0022725  33.3045 326.9598 14.76480071179055
RAVAN                   
1 41849U 16067B   20028.84818543  .00000962  00000-0  85727-4 0  9999
2 41849  97.9262 136.4248 0008118   8.0661 352.0690 14.98437494175562
CELTEE 1                
1 41850U 16067C   20028.78353334  .00000281  00000-0  29583-4 0  9998
2 41850  97.9211 134.4876 0008865   8.5681 351.5689 14.97116911175456
OPTICUBE 04             
1 41851U 16067D   20028.75750996  .00000263  00000-0  28259-4 0  9990
2 41851  97.9191 134.1527 0008728   8.3336 351.8029 14.96873713175435
AEROCUBE 8D             
1 41852U 16067E   20028.83765606  .00000734  00000-0  69374-4 0  9990
2 41852  97.9206 134.0626 0009558   9.1588 350.9806 14.96831533175428
AEROCUBE 8C             
1 41853U 16067F   20028.86588150 -.00000389  00000-0 -28625-4 0  9993
2 41853  97.9202 134.0093 0010138   7.6260 352.5113 14.96795188175423
PROMETHEUS 2-1          
1 41854U 16067G   20028.86351809 -.00000315  00000-0 -21994-4 0  9994
2 41854  97.9213 134.2517 0010407   6.7858 353.3502 14.97073339175431
PROMETHEUS 2-3          
1 41855U 16067H   20028.86487468 -.00000303  00000-0 -21003-4 0  9994
2 41855  97.9215 134.2786 0010579   6.8333 353.3030 14.97081893175431
INS-1B                  
1 41954U 17008G   20028.76134581  .00000907  00000-0  39805-4 0  9991
2 41954  97.3733  95.5743 0010729  79.7754 280.4693 15.24431544163935
BGUSAT                  
1 41999U 17008BD  20028.73402744  .00001510  00000-0  59844-4 0  9992
2 41999  97.3828  98.9457 0009685  89.5544 270.6804 15.26917729163473
DIDO-2                  
1 42000U 17008BE  20028.70152151  .00000602  00000-0  27535-4 0  9990
2 42000  97.3743  96.0581 0010171  95.5869 264.6529 15.24243173163323
PEASSS                  
1 42015U 17008BV  20028.71451464  .00000829  00000-0  35725-4 0  9997
2 42015  97.3760  97.4014 0008017  99.0885 261.1261 15.25300246163890
AL-FARABI 1             
1 42016U 17008BW  20028.87474707  .00001086  00000-0  44960-4 0  9997
2 42016  97.3784  98.3857 0007876  97.8793 262.3340 15.26053133164082
NAYIF-1 (EO-88)         
1 42017U 17008BX  20028.72593082  .00001108  00000-0  45765-4 0  9999
2 42017  97.3780  98.2507 0007891  98.2039 262.0094 15.26090447164087
NSIGHT                  
1 42726U 98067MF  20028.78846838  .00055284  00000-0  22142-3 0  9993
2 42726  51.6287 232.7908 0001962 285.0430  75.0356 15.85954036153183
UCLSAT                  
1 42765U 17036A   20028.65427594  .00000889  00000-0  40474-4 0  9993
2 42765  97.3221  86.5428 0012075 154.7616 205.4213 15.23197500145143
LITUANICASAT-2          
1 42768U 17036D   20028.80317162  .00001440  00000-0  63014-4 0  9991
2 42768  97.3268  86.4711 0015841 146.8176 213.4058 15.23529487144427
AALTO-1                 
1 42775U 17036L   20028.79952982  .00000540  00000-0  26849-4 0  9997
2 42775  97.3199  84.8839 0014801 148.1508 212.0626 15.21631771144288
URSA MAIOR              
1 42776U 17036M   20028.87045979  .00000593  00000-0  29080-4 0  9994
2 42776  97.3210  85.1798 0014640 147.7160 212.4975 15.21792228144300
COMPASS 2               
1 42777U 17036N   20028.68534395  .00001182  00000-0  52354-4 0  9994
2 42777  97.3260  86.8127 0013344 147.2846 212.9220 15.23488011144364
DIAMOND RED             
1 42783U 17036U   20028.58760981  .00000701  00000-0  33088-4 0  9991
2 42783  97.3221  85.8844 0012741 156.9732 203.2078 15.22567796144310
PEGASUS                 
1 42784U 17036V   20028.71746901  .00000795  00000-0  36803-4 0  9994
2 42784  97.3225  86.3480 0012648 155.6136 204.5701 15.22911005144354
DIAMOND GREEN           
1 42785U 17036W   20028.84930995  .00000719  00000-0  33879-4 0  9993
2 42785  97.3223  86.1703 0012645 156.6261 203.5554 15.22569641144424
DIAMOND BLUE            
1 42786U 17036X   20028.65133918  .00000704  00000-0  33244-4 0  9993
2 42786  97.3223  85.9739 0012464 157.4427 202.7360 15.22567947144392
NUDTSAT                 
1 42787U 17036Y   20028.88856381  .00001311  00000-0  56837-4 0  9993
2 42787  97.3270  87.6067 0010707 149.3228 210.8625 15.24079168144282
SUCHAI                  
1 42788U 17036Z   20028.65846838  .00000947  00000-0  42665-4 0  9993
2 42788  97.3232  86.7559 0012225 154.3469 205.8378 15.23402412144445
SKCUBE                  
1 42789U 17036AA  20028.82247922  .00000896  00000-0  40660-4 0  9998
2 42789  97.3227  86.8084 0012123 154.0248 206.1600 15.23270296144381
VZLUSAT-1               
1 42790U 17036AB  20028.67958664  .00001163  00000-0  50724-4 0  9995
2 42790  97.3248  87.3978 0011695 152.6809 207.5045 15.24064316144400
ROBUSTA-1B              
1 42792U 17036AD  20028.79336716  .00000909  00000-0  40992-4 0  9991
2 42792  97.3229  86.9888 0011678 154.2796 205.9025 15.23450972144406
CICERO 6                
1 42793U 17036AE  20028.79051289  .00000591  00000-0  28131-4 0  9999
2 42793  97.3208  86.5609 0010912 155.8588 204.3163 15.22903520144459
D-SAT                   
1 42794U 17036AF  20028.66719889  .00000229  00000-0  24917-4 0  9999
2 42794  97.5120  68.1552 0127740 114.5986 246.8605 14.91208594141712
CORVUS BC2              
1 42846U 17042X   20028.67730898 -.00000008  00000-0  44510-5 0  9996
2 42846  97.5423 278.4085 0010481  35.6145 324.5772 14.92052908138415
CORVUS BC1              
1 42847U 17042Y   20028.81664658  .00000073  00000-0  12394-4 0  9998
2 42847  97.5425 278.6863 0010122  34.7950 325.3929 14.92153906138435
MIRATA                  
1 43015U 17073C   20028.80013837  .00000494  00000-0  43440-4 0  9999
2 43015  97.7231 306.3548 0254811 147.0308 214.7089 14.79374558118427
MAKERSAT 0              
1 43016U 17073D   20028.72365121  .00000332  00000-0  30953-4 0  9993
2 43016  97.7267 306.4803 0257383 148.0164 213.6968 14.79019298118397
ASTERIA                 
1 43020U 98067NH  20028.84833467  .00045723  00000-0  18867-3 0  9998
2 43020  51.6388 244.8601 0002001 241.5619 118.5183 15.85417230125212
DELLINGR (RBLE)         
1 43021U 98067NJ  20028.92154749  .00008702  00000-0  84937-4 0  9995
2 43021  51.6361 276.0912 0001545 208.9270 151.1641 15.67105940124806
AEROCUBE 7B (OCSD B)    
1 43042U 17071F   20028.83335315  .00002932  00000-0  75793-4 0  9993
2 43042  51.6387  36.0545 0003912 251.0885 108.9677 15.42560101120660
AEROCUBE 7C (OCSD C)    
1 43043U 17071G   20028.89931573  .00002905  00000-0  75232-4 0  9996
2 43043  51.6388  35.7596 0004138 256.3102 103.7423 15.42538509120642
CHEFSAT                 
1 43044U 17071H   20028.89016550  .00005421  00000-0  11663-3 0  9999
2 43044  51.6394  25.4065 0003756 259.7285 100.3279 15.46314848120780
ASGARDIA 1              
1 43049U 17071N   20028.89905396  .00002783  00000-0  72222-4 0  9996
2 43049  51.6399  35.0635 0001783 277.6992  82.3792 15.42635397120658
ISARA                   
1 43050U 17071P   20028.53531593  .00005352  00000-0  11812-3 0  9995
2 43050  51.6377  28.9522 0001574 277.8892  82.1916 15.45575963120696
PROPCUBE 2 (FAUNA)      
1 43052U 17071R   20028.85823060  .00002798  00000-0  71702-4 0  9991
2 43052  51.6393  34.0601 0001696 272.1300  87.9492 15.43007173120658
CORVUS BC3              
1 43118U 18004H   20028.71731490  .00000563  00000-0  26819-4 0  9998
2 43118  97.4613 100.0367 0010405 177.6662 182.4625 15.23147490113572
MICROMAS-2A             
1 43131U 18004W   20028.84045702  .00001384  00000-0  58712-4 0  9990
2 43131  97.4650 101.4294 0009352 176.3073 183.8235 15.24787199113662
SPACEBEE-4              
1 43139U 18004AE  20028.85254261  .00001852  00000-0  75113-4 0  9995
2 43139  97.4676 102.3104 0008732 177.1496 182.9794 15.25877023113710
SPACEBEE-3              
1 43140U 18004AF  20028.87182834  .00002326  00000-0  91614-4 0  9996
2 43140  97.4686 102.8148 0008626 175.8738 184.2573 15.26606552113743
SPACEBEE-2              
1 43141U 18004AG  20028.68035243  .00002527  00000-0  98536-4 0  9990
2 43141  97.4698 102.7993 0008597 175.9686 184.1623 15.26854806113724
SPACEBEE-1              
1 43142U 18004AH  20028.74309130  .00002652  00000-0  10240-3 0  9991
2 43142  97.4701 103.0476 0008600 175.8394 184.2918 15.27140146113735
CICERO 7                
1 43143U 18004AJ  20028.84751492  .00001255  00000-0  53411-4 0  9991
2 43143  97.4632 101.6412 0007306 183.2170 176.9022 15.24874086113682
GOMX-4B                 
1 43196U 18015E   20028.92478743  .00000320  00000-0  16102-4 0  9993
2 43196  97.4179 158.7457 0017577 236.5838 123.3718 15.24123311110494
GOMX-4A                 
1 43197U 18015F   20028.91071846  .00000602  00000-0  27508-4 0  9991
2 43197  97.4167 158.7827 0017695 236.7969 240.3420 15.24291981110502
1KUNS-PF                
1 43466U 98067NP  20028.75923005  .00037740  00000-0  21922-3 0  9996
2 43466  51.6316 268.8436 0001326 171.3454 188.7570 15.78120275 98147
UBAKUSAT                
1 43467U 98067NQ  20028.73773906  .00014209  00000-0  12622-3 0  9990
2 43467  51.6344 282.2984 0002021 172.9702 187.1324 15.68827970 97978
